{"type": "FeatureCollection", "features": [ {"type": "Feature", "properties": {"norad_id": 30071, "name": "FENGYUN 1C DEB", "group": "fengyun-1c-debris", "lat": 8.453014288419437, "lon": 88.99563029065548, "alt_km": 719.3638655551058, "timestamp": "2025-12-16T21:38:57.447991+00:00", "meta": {"OBJECT_NAME": "FENGYUN 1C DEB", "OBJECT_ID": "1999-025PY", "EPOCH": "2025-12-16T05:21:29.702016", "MEAN_MOTION": 14.52212177, "ECCENTRICITY": 0.00390034, "INCLINATION": 98.6584, "RA_OF_ASC_NODE": 89.5935, "ARG_OF_PERICENTER": 99.2317, "MEAN_ANOMALY": 323.2276, "EPHEMERIS_TYPE": 0, "CLASSIFICATION_TYPE": "U", "NORAD_CAT_ID": 30071, "ELEMENT_SET_NO": 999, "REV_AT_EPOCH": 98277, "BSTAR": 0.0016710794, "MEAN_MOTION_DOT": 6.805e-05, "MEAN_MOTION_DDOT": 0}, "tle": {"line1": "1 30071U 99025PY  25350.22326044  .00006805  00000+0  16711-2 0  9990", "line2": "2 30071  98.6584  89.5935 0039003  99.2317 323.2276 14.52212177982778"}}, "geometry": {"type": "Point", "coordinates": [88.99563029065548, 8.453014288419437]}}, {"type": "Feature", "properties": {"norad_id": 30072, "name": "FENGYUN 1C DEB", "group": "fengyun-1c-debris", "lat": 61.95709930362264, "lon": -23.136696635324764, "alt_km": 793.8730098118513, "timestamp": "2025-12-16T21:38:57.448001+00:00", "meta": {"OBJECT_NAME": "FENGYUN 1C DEB", "OBJECT_ID": "1999-025PZ", "EPOCH": "2025-12-16T07:44:35.062656", "MEAN_MOTION": 14.37848308, "ECCENTRICITY": 0.00597785, "INCLINATION": 99.0755, "RA_OF_ASC_NODE": 138.7899, "ARG_OF_PERICENTER": 262.0546, "MEAN_ANOMALY": 97.3852, "EPHEMERIS_TYPE": 0, "CLASSIFICATION_TYPE": "U", "NORAD_CAT_ID": 30072, "ELEMENT_SET_NO": 999, "REV_AT_EPOCH": 97222, "BSTAR": 0.0023175082, "MEAN_MOTION_DOT": 7.092e-05, "MEAN_MOTION_DDOT": 0}, "tle": {"line1": "1 30072U 99025PZ  25350.32262804  .00007092  00000+0  23175-2 0  9996", "line2": "2 30072  99.0755 138.7899 0059778 262.0546  97.3852 14.37848308972227"}}, "geometry": {"type": "Point", "coordinates": [-23.136696635324764, 61.95709930362264]}}, {"type": "Feature", "properties": {"norad_id": 30073, "name": "FENGYUN 1C DEB", "group": "fengyun-1c-debris", "lat": 76.18660104491315, "lon": -173.29360786747756, "alt_km": 860.2124549984392, "timestamp": "2025-12-16T21:38:57.448011+00:00", "meta": {"OBJECT_NAME": "FENGYUN 1C DEB", "OBJECT_ID": "1999-025QA", "EPOCH": "2025-12-15T21:44:21.022368", "MEAN_MOTION": 14.18688245, "ECCENTRICITY": 0.00532821, "INCLINATION": 99.4115, "RA_OF_ASC_NODE": 323.2282, "ARG_OF_PERICENTER": 271.8574, "MEAN_ANOMALY": 143.0365, "EPHEMERIS_TYPE": 0, "CLASSIFICATION_TYPE": "U", "NORAD_CAT_ID": 30073, "ELEMENT_SET_NO": 999, "REV_AT_EPOCH": 96970, "BSTAR": 0.0011358993, "MEAN_MOTION_DOT": 2.341e-05, "MEAN_MOTION_DDOT": 0}, "tle": {"line1": "1 30073U 99025QA  25349.90579887  .00002341  00000+0  11359-2 0  9994", "line2": "2 30073  99.4115 323.2282 0053282 271.8574 143.0365 14.18688245969700"}}, "geometry": {"type": "Point", "coordinates": [-173.29360786747756, 76.18660104491315]}}, {"type": "Feature", "properties": {"norad_id": 30074, "name": "FENGYUN 1C DEB", "group": "fengyun-1c-debris", "lat": 51.14731528401704, "lon": -111.26424498160382, "alt_km": 776.114920715795, "timestamp": "2025-12-16T21:38:57.448022+00:00", "meta": {"OBJECT_NAME": "FENGYUN 1C DEB", "OBJECT_ID": "1999-025QB", "EPOCH": "2025-12-15T11:03:21.906144", "MEAN_MOTION": 14.12872322, "ECCENTRICITY": 0.00972202, "INCLINATION": 99.1301, "RA_OF_ASC_NODE": 55.7508, "ARG_OF_PERICENTER": 144.414, "MEAN_ANOMALY": 216.3566, "EPHEMERIS_TYPE": 0, "CLASSIFICATION_TYPE": "U", "NORAD_CAT_ID": 30074, "ELEMENT_SET_NO": 999, "REV_AT_EPOCH": 96700, "BSTAR": 0.0011285527, "MEAN_MOTION_DOT": 2.151e-05, "MEAN_MOTION_DDOT": 0}, "tle": {"line1": "1 30074U 99025QB  25349.46067021  .00002151  00000+0  11286-2 0  9996", "line2": "2 30074  99.1301  55.7508 0097220 144.4140 216.3566 14.12872322967000"}}, "geometry": {"type": "Point", "coordinates": [-111.26424498160382, 51.14731528401704]}}, {"type": "Feature", "properties": {"norad_id": 30075, "name": "FENGYUN 1C DEB", "group": "fengyun-1c-debris", "lat": -76.77360844740888, "lon": 85.83570138971072, "alt_km": 953.1333899757956, "timestamp": "2025-12-16T21:38:57.448031+00:00", "meta": {"OBJECT_NAME": "FENGYUN 1C DEB", "OBJECT_ID": "1999-025QC", "EPOCH": "2025-12-16T03:23:08.352096", "MEAN_MOTION": 13.92534238, "ECCENTRICITY": 0.00911984, "INCLINATION": 99.3616, "RA_OF_ASC_NODE": 40.4899, "ARG_OF_PERICENTER": 167.9029, "MEAN_ANOMALY": 257.6783, "EPHEMERIS_TYPE": 0, "CLASSIFICATION_TYPE": "U", "NORAD_CAT_ID": 30075, "ELEMENT_SET_NO": 999, "REV_AT_EPOCH": 96112, "BSTAR": 0.00012937598, "MEAN_MOTION_DOT": 1.27e-06, "MEAN_MOTION_DDOT": 0}, "tle": {"line1": "1 30075U 99025QC  25350.14106889  .00000127  00000+0  12938-3 0  9997", "line2": "2 30075  99.3616  40.4899 0091198 167.9029 257.6783 13.92534238961124"}}, "geometry": {"type": "Point", "coordinates": [85.83570138971072, -76.77360844740888]}}, {"type": "Feature", "properties": {"norad_id": 30076, "name": "FENGYUN 1C DEB", "group": "fengyun-1c-debris", "lat": 80.64355270133179, "lon": -121.46660559979362, "alt_km": 841.7065420618155, "timestamp": "2025-12-16T21:38:57.448042+00:00", "meta": {"OBJECT_NAME": "FENGYUN 1C DEB", "OBJECT_ID": "1999-025QD", "EPOCH": "2025-12-16T05:34:24.951072", "MEAN_MOTION": 13.7629321, "ECCENTRICITY": 0.01757241, "INCLINATION": 99.2384, "RA_OF_ASC_NODE": 336.8555, "ARG_OF_PERICENTER": 84.7085, "MEAN_ANOMALY": 289.483, "EPHEMERIS_TYPE": 0, "CLASSIFICATION_TYPE": "U", "NORAD_CAT_ID": 30076, "ELEMENT_SET_NO": 999, "REV_AT_EPOCH": 94942, "BSTAR": 0.00030541003, "MEAN_MOTION_DOT": 2.92e-06, "MEAN_MOTION_DDOT": 0}, "tle": {"line1": "1 30076U 99025QD  25350.23223323  .00000292  00000+0  30541-3 0  9994", "line2": "2 30076  99.2384 336.8555 0175724  84.7085 289.4830 13.76293210949422"}}, "geometry": {"type": "Point", "coordinates": [-121.46660559979362, 80.64355270133179]}}, {"type": "Feature", "properties": {"norad_id": 30077, "name": "FENGYUN 1C DEB", "group": "fengyun-1c-debris", "lat": 63.140886494729656, "lon": -155.8507216790874, "alt_km": 873.9083626197953, "timestamp": "2025-12-16T21:38:57.448052+00:00", "meta": {"OBJECT_NAME": "FENGYUN 1C DEB", "OBJECT_ID": "1999-025QE", "EPOCH": "2025-12-16T07:32:26.282112", "MEAN_MOTION": 14.07080366, "ECCENTRICITY": 0.00204224, "INCLINATION": 98.758, "RA_OF_ASC_NODE": 5.8582, "ARG_OF_PERICENTER": 253.586, "MEAN_ANOMALY": 125.873, "EPHEMERIS_TYPE": 0, "CLASSIFICATION_TYPE": "U", "NORAD_CAT_ID": 30077, "ELEMENT_SET_NO": 999, "REV_AT_EPOCH": 97163, "BSTAR": -8.032446e-06, "MEAN_MOTION_DOT": -5.6e-07, "MEAN_MOTION_DDOT": 0}, "tle": {"line1": "1 30077U 99025QE  25350.31419308 -.00000056  00000+0 -80324-5 0  9990", "line2": "2 30077  98.7580   5.8582 0020422 253.5860 125.8730 14.07080366971630"}}, "geometry": {"type": "Point", "coordinates": [-155.8507216790874, 63.140886494729656]}}, {"type": "Feature", "properties": {"norad_id": 30078, "name": "FENGYUN 1C DEB", "group": "fengyun-1c-debris", "lat": -63.98360462695276, "lon": -132.79384818174853, "alt_km": 786.7923380318143, "timestamp": "2025-12-16T21:38:57.448062+00:00", "meta": {"OBJECT_NAME": "FENGYUN 1C DEB", "OBJECT_ID": "1999-025QF", "EPOCH": "2025-12-16T03:43:01.193088", "MEAN_MOTION": 14.23154717, "ECCENTRICITY": 0.0052907, "INCLINATION": 98.8326, "RA_OF_ASC_NODE": 65.0332, "ARG_OF_PERICENTER": 270.5115, "MEAN_ANOMALY": 109.1894, "EPHEMERIS_TYPE": 0, "CLASSIFICATION_TYPE": "U", "NORAD_CAT_ID": 30078, "ELEMENT_SET_NO": 999, "REV_AT_EPOCH": 97162, "BSTAR": 0.0010056919, "MEAN_MOTION_DOT": 2.26e-05, "MEAN_MOTION_DDOT": 0}, "tle": {"line1": "1 30078U 99025QF  25350.15487492  .00002260  00000+0  10057-2 0  9992", "line2": "2 30078  98.8326  65.0332 0052907 270.5115 109.1894 14.23154717971621"}}, "geometry": {"type": "Point", "coordinates": [-132.79384818174853, -63.98360462695276]}}, {"type": "Feature", "properties": {"norad_id": 30079, "name": "FENGYUN 1C DEB", "group": "fengyun-1c-debris", "lat": 8.323219708736822, "lon": 45.059548832744106, "alt_km": 882.8789099092473, "timestamp": "2025-12-16T21:38:57.448072+00:00", "meta": {"OBJECT_NAME": "FENGYUN 1C DEB", "OBJECT_ID": "1999-025QG", "EPOCH": "2025-12-16T02:53:40.704000", "MEAN_MOTION": 14.00796105, "ECCENTRICITY": 0.00846863, "INCLINATION": 99.0347, "RA_OF_ASC_NODE": 45.6207, "ARG_OF_PERICENTER": 289.4656, "MEAN_ANOMALY": 99.5613, "EPHEMERIS_TYPE": 0, "CLASSIFICATION_TYPE": "U", "NORAD_CAT_ID": 30079, "ELEMENT_SET_NO": 999, "REV_AT_EPOCH": 96585, "BSTAR": 0.00015170559, "MEAN_MOTION_DOT": 1.89e-06, "MEAN_MOTION_DDOT": 0}, "tle": {"line1": "1 30079U 99025QG  25350.12061000  .00000189  00000+0  15171-3 0  9994", "line2": "2 30079  99.0347  45.6207 0084686 289.4656  99.5613 14.00796105965858"}}, "geometry": {"type": "Point", "coordinates": [45.059548832744106, 8.323219708736822]}}, {"type": "Feature", "properties": {"norad_id": 30080, "name": "FENGYUN 1C DEB", "group": "fengyun-1c-debris", "lat": -42.43219332705612, "lon": 143.24674019075837, "alt_km": 959.3692886835552, "timestamp": "2025-12-16T21:38:57.448082+00:00", "meta": {"OBJECT_NAME": "FENGYUN 1C DEB", "OBJECT_ID": "1999-025QH", "EPOCH": "2025-12-16T05:20:05.730720", "MEAN_MOTION": 14.10825573, "ECCENTRICITY": 0.01337466, "INCLINATION": 98.6984, "RA_OF_ASC_NODE": 330.6333, "ARG_OF_PERICENTER": 50.7756, "MEAN_ANOMALY": 321.4403, "EPHEMERIS_TYPE": 0, "CLASSIFICATION_TYPE": "U", "NORAD_CAT_ID": 30080, "ELEMENT_SET_NO": 999, "REV_AT_EPOCH": 97287, "BSTAR": 0.00030063074, "MEAN_MOTION_DOT": 5.44e-06, "MEAN_MOTION_DDOT": 0}, "tle": {"line1": "1 30080U 99025QH  25350.22228855  .00000544  00000+0  30063-3 0  9992", "line2": "2 30080  98.6984 330.6333 0133746  50.7756 321.4403 14.10825573972878"}}, "geometry": {"type": "Point", "coordinates": [143.24674019075837, -42.43219332705612]}}]}